STARLINK-35174          
1 65615U 25207Z   26061.74732645  .00003629  00000+0  25556-3 0  9997
2 65615  97.6027 131.7693 0000950 115.4723 244.6602 15.05654903 27217
STARLINK-35247          
1 65622U 25210A   26061.92502037  .00026485  00000+0  90300-3 0  9993
2 65622  53.1604 338.6288 0001309  86.2105 273.9046 15.30205142 26692
STARLINK-35239          
1 65623U 25210B   26061.95339822  .00026265  00000+0  89541-3 0  9998
2 65623  53.1619 338.0933 0001488 101.5007 258.6161 15.30213095 26706
STARLINK-35151          
1 65624U 25210C   26061.93134824  .00031931  00000+0  10852-2 0  9996
2 65624  53.1603 338.6610 0000926  77.1008 283.0096 15.30210565 26611
STARLINK-35153          
1 65625U 25210D   26061.94812224  .00023019  00000+0  78680-3 0  9997
2 65625  53.1637 338.0561 0001002  92.3006 267.8109 15.30204100 26625
STARLINK-35225          
1 65626U 25210E   26061.90496753  .00026976  00000+0  91928-3 0  9994
2 65626  53.1610 338.5013 0001306  85.4061 274.7089 15.30212095 26698
STARLINK-35217          
1 65627U 25210F   26061.93873336  .00036817  00000+0  12483-2 0  9997
2 65627  53.1608 338.7091 0000845  95.4918 264.6179 15.30220515 26697
STARLINK-35128          
1 65628U 25210G   26061.91446344  .00046202  00000+0  15611-2 0  9996
2 65628  53.1604 338.5604 0000706  93.9848 266.1234 15.30226478 26696
STARLINK-35135          
1 65629U 25210H   26061.90918464  .00017245  00000+0  59272-3 0  9990
2 65629  53.1601 338.5256 0000962  46.1325 313.9755 15.30215477 26697
STARLINK-34877          
1 65630U 25210J   26061.96394852  .00032574  00000+0  11064-2 0  9995
2 65630  53.1620 338.1577 0001558 113.3620 246.7545 15.30220012 26702
STARLINK-35104          
1 65631U 25210K   26061.96078459  .00032263  00000+0  10954-2 0  9990
2 65631  53.1619 338.1374 0001166 102.3456 257.7675 15.30236924 26699
STARLINK-35117          
1 65632U 25210L   26061.94191137  .00024727  00000+0  84450-3 0  9997
2 65632  53.1613 338.7271 0001199  75.0992 285.0142 15.30189283 26691
STARLINK-35103          
1 65633U 25210M   26061.18333584  .00037562  00000+0  12743-2 0  9994
2 65633  53.1610 341.8180 0001133  86.7554 273.3577 15.30190772 26589
STARLINK-35123          
1 65634U 25210N   26061.92818078  .00024929  00000+0  85106-3 0  9990
2 65634  53.1597 338.6392 0001243  95.3623 264.7520 15.30197246 26695
STARLINK-35150          
1 65635U 25210P   26061.93769914  .00083071  00000+0  27836-2 0  9994
2 65635  53.1611 338.6996 0000423 111.8295 248.2751 15.30224311 26698
STARLINK-35209          
1 65636U 25210Q   26061.91763080  .00038007  00000+0  12881-2 0  9994
2 65636  53.1600 338.5776 0000937  63.4354 296.6743 15.30218971 26693
STARLINK-35147          
1 65637U 25210R   26061.91235280  .00024837  00000+0  84765-3 0  9998
2 65637  53.1598 338.5444 0001197 116.0421 244.0703 15.30209406 26697
STARLINK-35213          
1 65638U 25210S   26061.90813544  .00028661  00000+0  97610-3 0  9995
2 65638  53.1604 338.5172 0001306 119.6714 240.4417 15.30199321 26696
STARLINK-35127          
1 65639U 25210T   26061.96501386  .00039482  00000+0  13361-2 0  9993
2 65639  53.1624 338.1628 0001315 124.5561 235.5564 15.30248233 26703
STARLINK-35091          
1 65640U 25210U   26061.96183973  .00040532  00000+0  13724-2 0  9994
2 65640  53.1617 338.1429 0001064 106.7511 253.3607 15.30218359 26706
STARLINK-35134          
1 65641U 25210V   26061.95761601  .00042762  00000+0  14471-2 0  9991
2 65641  53.1619 338.1165 0000909 108.2596 251.8504 15.30211547 26704
STARLINK-35109          
1 65642U 25210W   26061.95128603  .00023250  00000+0  79454-3 0  9995
2 65642  53.1617 338.0750 0001251  97.5105 262.6038 15.30204423 26706
STARLINK-35062          
1 65643U 25210X   26061.95022959  .00021186  00000+0  72531-3 0  9998
2 65643  53.1637 338.0670 0000892  99.8143 260.2959 15.30203442 26703
STARLINK-35141          
1 65644U 25210Y   26061.94084621  .00025100  00000+0  85651-3 0  9999
2 65644  53.1619 338.7172 0000948 111.2084 248.9018 15.30207667 26693
STARLINK-35237          
1 65645U 25210Z   26061.94401014  .00039765  00000+0  13468-2 0  9997
2 65645  53.1620 338.7384 0000774 101.1787 258.9301 15.30218254 26696
STARLINK-35183          
1 65646U 25210AA  26061.93451321  .00039190  00000+0  13277-2 0  9993
2 65646  53.1608 338.6775 0000767  93.8738 266.2351 15.30215089 26691
STARLINK-35202          
1 65647U 25210AB  26061.92923859  .00025109  00000+0  85672-3 0  9997
2 65647  53.1611 338.6451 0001619  98.5975 261.5210 15.30211214 26697
STARLINK-34868          
1 65648U 25210AC  26061.92079686  .00033605  00000+0  11413-2 0  9999
2 65648  53.1596 338.5908 0001080  70.1237 289.9880 15.30209078 26697
STARLINK-35079          
1 65649U 25210AD  26061.92713080  .00039596  00000+0  13415-2 0  9992
2 65649  53.1600 338.6306 0001119  84.0044 276.1085 15.30211186 26698
STARLINK-35328          
1 65652U 25211A   26061.94629144 -.00002467  00000+0 -16690-3 0  9994
2 65652  97.5994 107.3596 0001793  68.7799 291.3619 15.05631181 26028
STARLINK-34210          
1 65653U 25211B   26061.94073600  .00004907  00000+0  34400-3 0  9993
2 65653  97.6026 107.3702 0000927  93.9530 266.1803 15.05659081 26020
STARLINK-35227          
1 65654U 25211C   26061.93521768  .00006619  00000+0  46259-3 0  9993
2 65654  97.6024 107.3780 0000983  95.6803 264.4536 15.05641321 26021
STARLINK-35240          
1 65655U 25211D   26061.94350253  .00005655  00000+0  39588-3 0  9990
2 65655  97.6023 107.3658 0000846  84.7705 275.3618 15.05641274 26022
STARLINK-35344          
1 65656U 25211E   26061.87150873  .00004789  00000+0  33580-3 0  9992
2 65656  97.6028 107.3079 0000639  94.3957 265.7343 15.05658648 26011
STARLINK-34540          
1 65657U 25211F   26061.66659907  .00003609  00000+0  25414-3 0  9999
2 65657  97.6026 107.1194 0001953 128.6115 231.5287 15.05654584 25981
STARLINK-35282          
1 65658U 25211G   26061.66106152  .00002361  00000+0  16778-3 0  9996
2 65658  97.6038 107.1276 0001068  99.1442 260.9906 15.05651266 25986
STARLINK-35120          
1 65659U 25211H   26061.92966017  .00004593  00000+0  32228-3 0  9997
2 65659  97.6034 107.3859 0001138 157.1960 202.9317 15.05656508 26022
STARLINK-35246          
1 65660U 25211J   26061.65830613  .00006106  00000+0  42711-3 0  9991
2 65660  97.6040 107.1314 0001762  91.3994 268.7434 15.05640177 25983
STARLINK-35220          
1 65661U 25211K   26061.65553235  .00035432  00000+0  24471-2 0  9990
2 65661  97.6039 107.1356 0001789  73.9379 286.2044 15.05657317 25986
STARLINK-35176          
1 65662U 25211L   26061.71921377  .00003921  00000+0  27577-3 0  9993
2 65662  97.6036 107.2041 0001098 120.8045 239.3290 15.05655999 25998
STARLINK-35190          
1 65663U 25211M   26061.71645111  .00006109  00000+0  42713-3 0  9993
2 65663  97.6039 107.2080 0001838  90.9453 269.1985 15.05656823 25996
STARLINK-35201          
1 65664U 25211N   26061.71367882  .00003687  00000+0  25957-3 0  9999
2 65664  97.6038 107.2122 0001573  92.3246 267.8161 15.05655522 25991
STARLINK-35115          
1 65665U 25211P   26061.71090980  .00002153  00000+0  15340-3 0  9994
2 65665  97.6034 107.2159 0001338 119.1020 241.0341 15.05650370 25995
STARLINK-35181          
1 65666U 25211Q   26061.70814473  .00006306  00000+0  44104-3 0  9999
2 65666  97.6031 107.2195 0001526 106.5917 253.5478 15.05636190 25990
STARLINK-35361          
1 65667U 25211R   26061.70539259  .00004491  00000+0  31539-3 0  9997
2 65667  97.6025 107.2233 0001549  97.6807 262.4596 15.05636929 25990
STARLINK-35351          
1 65668U 25211S   26061.70260313  .00003833  00000+0  26965-3 0  9996
2 65668  97.6020 107.2265 0001473  93.4086 266.7309 15.05654098 25996
STARLINK-35353          
1 65669U 25211T   26061.69983973  .00005301  00000+0  37136-3 0  9993
2 65669  97.6018 107.2302 0001209 106.6891 253.4469 15.05647101 25991
STARLINK-35359          
1 65670U 25211U   26061.69706471  .00004812  00000+0  33744-3 0  9998
2 65670  97.6014 107.2336 0000989 136.1522 223.9784 15.05656970 25995
STARLINK-35194          
1 65671U 25211V   26061.69154030  .00002131  00000+0  15189-3 0  9992
2 65671  97.6013 107.2409 0000520 111.4500 248.6782 15.05638352 25995
STARLINK-35198          
1 65672U 25211W   26061.69429747  .00003452  00000+0  24333-3 0  9991
2 65672  97.6015 107.2368 0001244 137.6347 222.4976 15.05654778 25990
STARLINK-35177          
1 65673U 25211X   26061.68599449  .00001573  00000+0  11321-3 0  9993
2 65673  97.6017 107.2486 0001901 114.8411 245.3014 15.05648812 25992
STARLINK-35254          
1 65674U 25211Y   26061.68322136  .00002045  00000+0  14590-3 0  9997
2 65674  97.6024 107.2526 0000652 126.3915 233.7372 15.05652467 25994
STARLINK-34749          
1 65675U 25211Z   26061.68878364  .00020489  00000+0  14202-2 0  9998
2 65675  97.6021 107.2443 0000789 129.9762 230.1534 15.05647920 25999
STARLINK-35189          
1 65676U 25212A   26061.87609981  .00030057  00000+0  10220-2 0  9996
2 65676  53.1611  17.0901 0001054 105.6859 254.4258 15.30225749 26153
STARLINK-35222          
1 65677U 25212B   26061.30408486  .00038568  00000+0  13077-2 0  9990
2 65677  53.1590  19.9185 0001051  85.8542 274.2579 15.30197671 26125
STARLINK-35233          
1 65678U 25212C   26061.85931726  .00020195  00000+0  69182-3 0  9995
2 65678  53.1608  17.6963 0001609  92.3373 267.7812 15.30214232 26208
STARLINK-35205          
1 65679U 25212D   26061.85298807  .00033387  00000+0  11338-2 0  9998
2 65679  53.1607  17.6564 0001522  99.6734 260.4439 15.30215722 26143
STARLINK-35070          
1 65680U 25212E   26061.86975437  .00042195  00000+0  14278-2 0  9995
2 65680  53.1623  17.0492 0001120  80.6003 279.5125 15.30220365 26209
STARLINK-35230          
1 65681U 25212F   26061.89825172  .00024955  00000+0  85157-3 0  9998
2 65681  53.1594  17.2265 0001487  94.8457 265.2713 15.30211439 26211
